STARLINK-37026          
1 68075U 26042G   26090.23321645  .00291023  00000+0  18376-2 0  9996
2 68075  53.1565  87.3014 0001452  42.7840 317.3293 15.75245249  5482
STARLINK-37023          
1 68076U 26042H   26090.29147268  .00162645  00000+0  10437-2 0  9997
2 68076  53.1567  86.9514 0001281  84.7544 275.3622 15.75264630  5497
STARLINK-37036          
1 68077U 26042J   26090.29180422  .00208662  00000+0  13308-2 0  9997
2 68077  53.1564  86.9525 0001937  48.2772 311.8413 15.75260092  5495
STARLINK-36973          
1 68078U 26042K   26090.26456340  .00177218  00000+0  11334-2 0  9999
2 68078  53.1591  86.7725 0001224  89.1860 270.9301 15.75296130  5490
STARLINK-37063          
1 68079U 26042L   26090.24731234  .00194877  00000+0  96582-3 0  9995
2 68079  53.1567  86.6592 0001234  47.4326 312.6800 15.80938888  5497
STARLINK-37051          
1 68080U 26042M   26090.26910041  .00258539  00000+0  16330-2 0  9992
2 68080  53.1583  86.8021 0001248  90.2311 269.8853 15.75332445  5493
STARLINK-37066          
1 68081U 26042N   26090.28238921  .00312097  00000+0  19634-2 0  9995
2 68081  53.1593  86.8914 0001179 120.2960 239.8177 15.75268068  5498
STARLINK-37054          
1 68082U 26042P   26090.24431536  .00496085  00000+0  23743-2 0  9995
2 68082  53.1570  86.6384 0001242 132.6231 227.4897 15.80882667  5497
STARLINK-37065          
1 68083U 26042Q   26089.96970081  .00324508  00000+0  20290-2 0  9990
2 68083  53.1580  88.4984 0002057  88.3376 271.7880 15.75373865  5445
STARLINK-37037          
1 68084U 26042R   26090.26877362  .00314177  00000+0  19751-2 0  9995
2 68084  53.1580  86.8008 0001447 103.6617 256.4564 15.75278756  5493
STARLINK-37068          
1 68085U 26042S   26090.25548753  .00361973  00000+0  22650-2 0  9992
2 68085  53.1593  86.7108 0001217 131.7985 228.3139 15.75247790  5493
STARLINK-37067          
1 68086U 26042T   26090.24131447  .00383999  00000+0  18642-2 0  9998
2 68086  53.1573  86.6183 0001346 139.4062 220.7061 15.80869150  5494
